satname,norad_id,inclination_deg,eccentricity,mean_motion_rev_per_day,perigee_km,apogee_km,l1,l2
STARLINK-1496,45780,53.0556,0.000231,15.37646494,451.492948214247,454.6489662904978,1 45780U 20038BC  26008.52150550  .00087794  00000+0  23242-2 0  9995,2 45780  53.0556 103.3475 0002310  26.9977 333.1146 15.37646494307728
STARLINK-1497,45781,53.032,0.0006796,15.8051605,324.4221324326263,333.53844625229976,1 45781U 20038BD  26008.66671296  .00101946  00000+0  52169-3 0  9993,2 45781  53.0320  22.1099 0006796  48.2898 125.5595 15.80516050  5985
STARLINK-1513,45786,53.0555,0.000116,15.06397366,546.4162894115034,548.0229721498454,1 45786U 20038BJ  26008.47209227  .00001922  00000+0  14786-3 0  9994,2 45786  53.0555 106.9472 0001160  80.3724 279.7396 15.06397366307689
STARLINK-1522,46027,53.0549,0.0001432,15.0639647,546.2306654382182,548.2140883637621,1 46027U 20055A   26008.32005038 -.00001721  00000+0 -96707-4 0  9993,2 46027  53.0549  37.6271 0001432  91.8412 268.2741 15.06396470299784
STARLINK-1523,46028,53.0545,0.0001757,15.06399215,545.9971796869131,548.4307480156103,1 46028U 20055B   26008.33479954 -.00000047  00000+0  15779-4 0  9996,2 46028  53.0545  37.5639 0001757  88.3339 271.7851 15.06399215299801
STARLINK-1526,46029,53.0554,0.0001313,15.06394284,546.3197761445463,548.1383772762902,1 46029U 20055C   26008.39376945 -.00001593  00000+0 -88072-4 0  9993,2 46029  53.0554  37.2960 0001313  94.9837 265.1302 15.06394284299809
STARLINK-1555,46032,53.0549,0.0001349,15.06406319,546.2579642731889,548.1264180889693,1 46032U 20055F   26008.37901864 -.00000024  00000+0  17280-4 0  9999,2 46032  53.0549  37.3615 0001349  80.0920 280.0221 15.06406319299802
STARLINK-1556,46033,53.0544,0.0001385,15.06401944,546.2464399145902,548.1647598147538,1 46033U 20055G   26008.36059043 -.00001454  00000+0 -78709-4 0  9994,2 46033  53.0544  37.4440 0001385  83.6401 276.4745 15.06401944299773
STARLINK-1557,46034,53.0552,0.0001298,15.06392531,546.3355362279908,548.1333626562655,1 46034U 20055H   26008.36428095 -.00000450  00000+0 -11352-4 0  9998,2 46034  53.0552  37.4279 0001298  89.6687 270.4451 15.06392531299777
STARLINK-1558,46035,53.0545,0.0001364,15.06400824,546.2644152992734,548.1536496969384,1 46035U 20055J   26008.37165565  .00000543  00000+0  55358-4 0  9995,2 46035  53.0545  37.3978 0001364  96.8013 263.3132 15.06400824299808
STARLINK-1560,46036,53.054,0.0001388,15.06398505,546.2549008859305,548.1773789175668,1 46036U 20055K   26008.35690691 -.00001325  00000+0 -70059-4 0  9993,2 46036  53.0540  37.4633 0001388 103.8464 256.2679 15.06398505299807
STARLINK-1567,46038,53.0544,0.0001018,15.06384741,546.5533197262666,547.9633302144312,1 46038U 20055M   26008.56701813  .00001487  00000+0  11873-3 0  9992,2 46038  53.0544  36.5185 0001018  86.6732 273.4373 15.06384741299822
STARLINK-1569,46039,53.0549,0.0001326,15.06386596,546.3343329061627,548.170946238577,1 46039U 20055N   26008.37533833  .00002320  00000+0  17464-3 0  9996,2 46039  53.0549  37.3801 0001326  86.8364 273.2777 15.06386596299799
STARLINK-1582,46043,53.0543,0.0001455,15.06389728,546.2353975218666,548.2506831135988,1 46043U 20055S   26008.31635571 -.00005925  00000+0 -37928-3 0  9990,2 46043  53.0543  37.6435 0001455  91.3322 268.7833 15.06389728299783
STARLINK-1591,46045,53.054,0.0001605,15.06398955,546.1032417570259,548.3262796722156,1 46045U 20055U   26008.47485761 -.00002170  00000+0 -12685-3 0  9995,2 46045  53.0540  36.9316 0001605  95.3299 264.7873 15.06398955299799
STARLINK-1524,46047,53.0575,0.0001612,15.06396098,546.1071489167552,548.3398851474467,1 46047U 20055W   26008.36152249 -.00000743  00000+0 -30963-4 0  9991,2 46047  53.0575  27.4418 0001612  89.0948 271.0226 15.06396098299931
STARLINK-1527,46048,53.0557,0.0001548,15.06403593,546.1285036805411,548.2725881847628,1 46048U 20055X   26008.42419295  .00007547  00000+0  52493-3 0  9994,2 46048  53.0557  27.1600 0001548  79.1208 280.9955 15.06403593299925
STARLINK-1540,46051,53.0553,0.0001548,15.06401517,546.1348653186224,548.2789517927113,1 46051U 20055AA  26008.32465487 -.00001552  00000+0 -85279-4 0  9992,2 46051  53.0553  27.6072 0001548  95.5437 264.5729 15.06401517299942
STARLINK-1541,46052,53.0547,0.0001364,15.06402535,546.259172055723,548.1484050228364,1 46052U 20055AB  26008.30991539  .00000467  00000+0  50242-4 0  9997,2 46052  53.0547  27.6724 0001364  89.3889 270.7256 15.06402535299909
STARLINK-1543,46053,53.055,0.0001516,15.06401218,546.1579426707549,548.2577072216782,1 46053U 20055AC  26008.31359852  .00000575  00000+0  57517-4 0  9997,2 46053  53.0550  27.6557 0001516  88.7020 271.4143 15.06401218299930
STARLINK-1548,46054,53.0539,0.0001535,15.064073,546.1261470106874,548.2522221493537,1 46054U 20055AD  26008.32096917  .00000735  00000+0  68234-4 0  9995,2 46054  53.0539  27.6234 0001535  83.7406 276.3758 15.06407300299938
STARLINK-1554,46055,53.0547,0.0001273,15.06398732,546.3338468122338,548.0970415445208,1 46055U 20055AE  26008.30622906 -.00000246  00000+0  24000-5 0  9999,2 46055  53.0547  27.6893 0001273  91.1222 268.9913 15.06398732299935
STARLINK-1564,46058,53.0537,0.0001555,15.06404515,546.1208305991358,548.2746096971014,1 46058U 20055AH  26008.31735184  .00002683  00000+0  19889-3 0  9999,2 46058  53.0537  28.1008 0001555  93.8269 266.2898 15.06404515299923
STARLINK-1570,46059,53.0558,0.0001309,15.06392049,546.3293953992006,548.1424580314151,1 46059U 20055AJ  26008.34678167  .00000304  00000+0  39286-4 0  9992,2 46059  53.0558  27.5109 0001309  92.1418 267.9721 15.06392049299894
STARLINK-1572,46060,53.0549,0.0001396,15.06398507,546.2493544745503,548.1829130695005,1 46060U 20055AK  26008.34308314 -.00000337  00000+0 -37234-5 0  9998,2 46060  53.0549  27.5237 0001396  93.9763 266.1386 15.06398507299901
STARLINK-1573,46061,53.0543,0.0001288,15.06407154,546.2976499752076,548.081614115622,1 46061U 20055AL  26008.33941075  .00000996  00000+0  85732-4 0  9999,2 46061  53.0543  27.5752 0001288  67.8165 292.2960 15.06407154299934
STARLINK-1577,46063,53.0575,0.00015,15.06393801,546.1917519120543,548.2693621791686,1 46063U 20055AN  26008.36521263  .00000464  00000+0  50058-4 0  9990,2 46063  53.0575  27.4250 0001500  85.7130 274.4030 15.06393801299934
STARLINK-1583,46064,53.0545,0.0001227,15.06399364,546.3637666801296,548.063247694593,1 46064U 20055AP  26008.33203260  .00000313  00000+0  39883-4 0  9998,2 46064  53.0545  27.5738 0001227  89.9343 270.1786 15.06399364299933
